*******************************************************************************
 Revised: Dec 02, 2013              Jupiter                                 599
 
 PHYSICAL DATA (updated 2009-Jan-28):
  Mass (10^24 kg)       =  1898.13+-.19   Density (g/cm^3)       =  1.326
  Equat. radius (1 bar) = 71492+-4 km     Polar radius (km)      = 66854+-10
  Volumetric mean radius= 69911+-6 km     Flattening             =  0.06487

  Rotation period       = 9h 55m 29.685s  Rot. rate(10^-4 rad/s) =  1.75865
  m = w^2a^3/GM         =  0.089195       Hydrostatic flat., fh  =  0.06509
  Inferred rot. period  =  9.894+-0.02 hr ks = 3*J2/m            =  0.494
  Mom. of inert. I/MRo^2=  0.254          I/MRo^2 (upper bound)  =  0.267 
  Rocky core mass (Mc/M)=  0.0261         Y factor (He/H ratio)  =  0.18+-0.04

  GM (km^3/s^2)         = 126,686,511     GM 1-sigma (km^3/s^2)  = +-100
  Equ. grav, ge (m/s^2) = 24.79           Pol. grav, gp (m/s^2)  = 28.34

  Geometric albedo      =  0.52           Visual magnitude V(1,0)= -9.40
  Vis. mag. (opposition)= -2.70           Obliquity to orbit     =  3.12 deg
  Sidereal orbit period = 11.862615 yr    Sidereal orbit period  = 4332.820 d
  Mean daily motion     = 0.0831294 deg/d Mean orbit velocity    = 13.0697 km/s

  Atmos. temp. (1 bar)  = 165+-5 K        Heat flow/mass (x10^7) = 15 erg/gm*s
  Planetary Solar Const =  50.5 W/m^2     Dipole tilt/offset     = 9.6deg/0.1Rp 
  Escape velocity (km/s)=  59.5           Mag.dip.mom(gauss-Rp^3)= 4.2 
  A_roche(ice)/Rp       =  2.76           Hill's sphere rad. Rp  = 740
*******************************************************************************
 
 
*******************************************************************************
Ephemeris / WWW_USER Tue Mar 15 19:58:19 2016 Pasadena, USA      / Horizons    
*******************************************************************************
Target body name: Jupiter (599)                   {source: jup310}
Center body name: Earth (399)                     {source: DE431mx}
Center-site name: (user defined site below)
*******************************************************************************
Start time      : A.D. 2012-Nov-10 00:00:00.0000 UT      
Stop  time      : A.D. 2013-Mar-23 00:00:00.0000 UT      
Step-size       : 60 minutes
*******************************************************************************
Target pole/equ : IAU_JUPITER                     {East-longitude -}
Target radii    : 71492.0 x 71492.0 x 66854.0 km  {Equator, meridian, pole}    
Center geodetic : 21.4283333,-30.721389,0.0000000 {E-lon(deg),Lat(deg),Alt(km)}
Center cylindric: 21.4283333,5487.83563,-3239.378 {E-lon(deg),Dxy(km),Dz(km)}
Center pole/equ : High-precision EOP model        {East-longitude +}
Center radii    : 6378.1 x 6378.1 x 6356.8 km     {Equator, meridian, pole}    
Target primary  : Sun
Vis. interferer : MOON (R_eq= 1737.400) km        {source: DE431mx}
Rel. light bend : Sun, EARTH                      {source: DE431mx}
Rel. lght bnd GM: 1.3271E+11, 3.9860E+05 km^3/s^2                              
Atmos refraction: NO (AIRLESS)
RA format       : DEG
Time format     : JD  
EOP file        : eop.160315.p160606                                           
EOP coverage    : DATA-BASED 1962-JAN-20 TO 2016-MAR-15. PREDICTS-> 2016-JUN-05
Units conversion: 1 au= 149597870.700 km, c= 299792.458 km/s, 1 day= 86400.0 s 
Table cut-offs 1: Elevation (-90.0deg=NO ),Airmass (>38.000=NO), Daylight (NO )
Table cut-offs 2: Solar Elongation (  0.0,180.0=NO ),Local Hour Angle( 0.0=NO )
Table format    : Comma Separated Values (spreadsheet)
***********************************************************************************************************************
Date_________JDUT, , ,R.A._(ICRF/J2000.0), DEC_(ICRF/J2000.0), Azi_(a-app), Elev_(a-app), L_Ap_Sid_Time, L_Ap_Hour_Ang,
***********************************************************************************************************************
$$SOE
2456282.125000000,*,m, 67.21896, 21.03227,  72.3226,-11.7166, 22.4018963221,  -6.092828935,
2456282.166666667,*,m, 67.21364, 21.03168,  65.0737,  0.3325, 23.4046341857,  -5.089737277,
2456282.208333333,*,m, 67.20828, 21.03109,  56.6926, 11.6361,  0.4073720498,  -4.086643331,
2456282.250000000,C,m, 67.20289, 21.03049,  46.5539, 21.7879,  1.4101099144,  -3.083547241,
2456282.291666667,A,m, 67.19748, 21.02988,  34.0078, 30.1730,  2.4128477794,  -2.080449314,
2456282.333333333, ,m, 67.19205, 21.02926,  18.7132, 35.9448,  3.4155856449,  -1.077350001,
2456282.375000000, ,m, 67.18662, 21.02863,   1.3228, 38.2112,  4.4183235109,  -0.074249858,
2456282.416666667, ,m, 67.18118, 21.02799, 343.7630, 36.5211,  5.4210613774,   0.928850481,
2456282.458333333, , , 67.17576, 21.02733, 328.0826, 31.2171,  6.4237992444,   1.931950356,
2456282.500000000, , , 67.17037, 21.02667, 315.1347, 23.1615,  7.4265371120,   2.935049124,
2456282.541666667, , , 67.16500, 21.02600, 304.6775, 13.2270,  8.4292749801,   3.938146202,
2456282.583333333,A, , 67.15966, 21.02532, 296.0764,  2.0643,  9.4320128488,   4.941241106,
2456282.625000000,N, , 67.15437, 21.02464, 288.6947, -9.8938, 10.4347507181,   5.944333487,
2456282.666666667,*, , 67.14912, 21.02396, 281.9670,-22.3627, 11.4374885880,   6.947423152,
2456282.708333333,*, , 67.14390, 21.02328, 275.3171,-35.1424, 12.4402264585,   7.950510082,
2456282.750000000,*, , 67.13873, 21.02261, 267.9227,-48.0621, 13.4429643296,   8.953594424,
2456282.791666667,*, , 67.13358, 21.02194, 257.9693,-60.8921, 14.4457022014,   9.956676491,
2456282.833333333,*, , 67.12845, 21.02129, 239.0663,-72.9827, 15.4484400739,  10.959756733,
2456282.875000000,*, , 67.12334, 21.02065, 183.0938,-80.3142, 16.4511779470,  11.962835753,
2456282.916666667,*, , 67.11823, 21.02003, 123.2128,-73.7942, 17.4539158208, -11.034085846,
2456282.958333333,*, , 67.11312, 21.01942, 102.9852,-61.8268, 18.4566536953, -10.031007459,
2456283.000000000,*,m, 67.10799, 21.01881,  92.6974,-49.0183, 19.4593915704,  -9.027928396,
2456283.041666667,*,m, 67.10284, 21.01822,  85.1977,-36.0953, 20.4621294463,  -8.024848078,
2456283.083333333,*,m, 67.09766, 21.01764,  78.5269,-23.2986, 21.4648673230,  -7.021766030,
2456283.125000000,*,m, 67.09245, 21.01705,  71.8264,-10.7996, 22.4676052003,  -6.018681911,
2456283.166666667,*,m, 67.08720, 21.01647,  64.5126,  1.2059, 23.4703430785,  -5.015595535,
2456283.208333333,*,m, 67.08192, 21.01589,  56.0233, 12.4416,  0.4730809574,  -4.012506890,
2456283.250000000,C,m, 67.07661, 21.01530,  45.7271, 22.4884,  1.4758188370,  -3.009416133,
2456283.291666667,A,m, 67.07128, 21.01470,  32.9802, 30.7135,  2.4785567175,  -2.006323584,
2456283.333333333, ,m, 67.06594, 21.01409,  17.4880, 36.2561,  3.4812945987,  -1.003229700,
2456283.375000000, ,m, 67.06059, 21.01347,   0.0024, 38.2372,  4.4840324807,  -0.000135046,
2456283.416666667, ,m, 67.05524, 21.01283, 342.5161, 36.2583,  5.4867703636,   1.002959742,
2456283.458333333, ,m, 67.04990, 21.01219, 327.0222, 30.7175,  6.4895082473,   2.006054005,
2456283.500000000, , , 67.04459, 21.01154, 314.2733, 22.4937,  7.4922461318,   3.009147102,
2456283.541666667, , , 67.03931, 21.01087, 303.9753, 12.4477,  8.4949840171,   4.012238458,
2456283.583333333,A, , 67.03406, 21.01020, 295.4844,  1.2124,  9.4977219033,   5.015327598,
2456283.625000000,N, , 67.02885, 21.00953, 288.1688,-10.7928, 10.5004597904,   6.018414184,
2456283.666666667,*, , 67.02369, 21.00886, 281.4664,-23.2915, 11.5031976783,   7.021498037,
2456283.708333333,*, , 67.01856, 21.00819, 274.7929,-36.0879, 12.5059355671,   8.024579149,
2456283.750000000,*, , 67.01347, 21.00753, 267.2892,-49.0104, 13.5086734568,   9.027657682,
2456283.791666667,*, , 67.00841, 21.00688, 256.9948,-61.8178, 14.5114113474,  10.030733957,
2456283.833333333,*, , 67.00337, 21.00624, 236.7584,-73.7825, 15.5141492388,  11.033808435,
2456283.875000000,*, , 66.99834, 21.00561, 176.9341,-80.2995, 16.5168871312, -11.963118266,
2456283.916666667,*, , 66.99332, 21.00500, 120.9858,-72.9760, 17.5196250245, -10.960045566,
2456283.958333333,*, , 66.98829, 21.00440, 102.0667,-60.8883, 18.5223629187,  -9.956972835,
2456284.000000000,*, , 66.98325, 21.00381,  92.1055,-48.0587, 19.5251008138,  -8.953899393,
2456284.041666667,*,m, 66.97818, 21.00322,  84.7074,-35.1385, 20.5278387099,  -7.950824670,
2456284.083333333,*,m, 66.97308, 21.00265,  78.0557,-22.3576, 21.5305766069,  -6.947748199,
2456284.125000000,*,m, 66.96795, 21.00208,  71.3275, -9.8870, 22.5333145048,  -5.944669649,
2456284.166666667,*,m, 66.96279, 21.00151,  63.9459,  2.0735, 23.5360524037,  -4.941588846,
2456284.208333333,*,m, 66.95760, 21.00093,  55.3452, 13.2394,  0.5387903035,  -3.938505791,
2456284.250000000,C,m, 66.95237, 21.00035,  44.8881, 23.1779,  1.5415282043,  -2.935420651,
2456284.291666667,A,m, 66.94713, 20.99976,  31.9385, 31.2384,  2.5442661061,  -1.932333757,
2456284.333333333, ,m, 66.94187, 20.99916,  16.2528, 36.5472,  3.5470040088,  -0.929245573,
2456284.375000000, ,m, 66.93660, 20.99855, 358.6836, 38.2411,  4.5497419125,   0.073843328,
2456284.416666667, ,m, 66.93134, 20.99793, 341.2824, 35.9761,  5.5524798171,   1.076932311,
2456284.458333333, ,m, 66.92609, 20.99729, 325.9789, 30.2037,  6.5552177228,   2.080020717,
2456284.500000000, , , 66.92087, 20.99665, 313.4269, 21.8169,  7.5579556294,   3.083107908,
2456284.541666667, , , 66.91568, 20.99599, 303.2842, 11.6631,  8.5606935371,   4.086193316,
2456284.583333333,A, , 66.91052, 20.99533, 294.8998,  0.3577,  9.5634314456,   5.089276477,
2456284.625000000,N, , 66.90540, 20.99467, 287.6473,-11.6930, 10.5661693553,   6.092357063,
2456284.666666667,*, , 66.90033, 20.99401, 280.9669,-24.2204, 11.5689072658,   7.095434906,
2456284.708333333,*, , 66.89529, 20.99336, 274.2654,-37.0324, 12.5716451774,   8.098510011,
2456284.750000000,*, , 66.89029, 20.99271, 266.6429,-49.9566, 13.5743830900,   9.101582551,
2456284.791666667,*, , 66.88532, 20.99207, 255.9763,-62.7381, 14.5771210036,  10.104652858,
